start=new Date('2022-09-28T00:00:00.000Z').valueOf();
sats=[{"MEAN_ELEMENT_THEORY":"SGP4","DECAY_DATE":null,"OBJECT_NAME":"STARLINK-3884","ARG_OF_PERICENTER":"39.4676","OBJECT_TYPE":"PAYLOAD","TIME_SYSTEM":"UTC","EPHEMERIS_TYPE":"0","OBJECT_ID":"2022-049AY","CLASSIFICATION_TYPE":"U","LAUNCH_DATE":"2022-05-06","FILE":"3584894","RCS_SIZE":"LARGE","INCLINATION":"53.2202","REV_AT_EPOCH":"2245","SEMIMAJOR_AXIS":"6917.910","APOAPSIS":"541.348","TLE_LINE1":"1 52497U 22049AY  22270.46056144 -.00000243  00000-0  28657-5 0  9990","TLE_LINE2":"2 52497  53.2202 302.0231 0002273  39.4676 320.6482 15.08830265 22459","PERIAPSIS":"538.203","MEAN_MOTION_DDOT":"0.0000000000000","ECCENTRICITY":"0.00022730","RA_OF_ASC_NODE":"302.0231","NORAD_CAT_ID":"52497","GP_ID":"213610344","EPOCH":"2022-09-27T11:03:12.508416","SITE":"AFETR","COUNTRY_CODE":"US","MEAN_MOTION":"15.08830265","CENTER_NAME":"EARTH","MEAN_ANOMALY":"320.6482","REF_FRAME":"TEME","ELEMENT_SET_NO":"999","PERIOD":"95.438","MEAN_MOTION_DOT":"-0.00000243","BSTAR":"0.00000286570000"},{"COUNTRY_CODE":"US","MEAN_MOTION":"15.08835842","ELEMENT_SET_NO":"999","MEAN_ANOMALY":"312.6877","CENTER_NAME":"EARTH","REF_FRAME":"TEME","PERIOD":"95.438","MEAN_MOTION_DOT":"0.00000884","BSTAR":"0.00007365700000","TLE_LINE2":"2 52498  53.2145 290.6389 0001806  47.4267 312.6877 15.08835842 22633","TLE_LINE1":"1 52498U 22049AZ  22270.76691619  .00000884  00000-0  73657-4 0  9995","ECCENTRICITY":"0.00018060","RA_OF_ASC_NODE":"290.6389","MEAN_MOTION_DDOT":"0.0000000000000","PERIAPSIS":"538.509","NORAD_CAT_ID":"52498","EPOCH":"2022-09-27T18:24:21.558816","GP_ID":"213644092","SITE":"AFETR","CLASSIFICATION_TYPE":"U","LAUNCH_DATE":"2022-05-06","FILE":"3585263","REV_AT_EPOCH":"2263","APOAPSIS":"541.007","SEMIMAJOR_AXIS":"6917.893","RCS_SIZE":"LARGE","INCLINATION":"53.2145","DECAY_DATE":null,"MEAN_ELEMENT_THEORY":"SGP4","ARG_OF_PERICENTER":"47.4267","TIME_SYSTEM":"UTC","OBJECT_TYPE":"PAYLOAD","OBJECT_NAME":"STARLINK-3925","EPHEMERIS_TYPE":"0","OBJECT_ID":"2022-049AZ"},{"COUNTRY_CODE":"US","MEAN_MOTION":"15.08838576","ELEMENT_SET_NO":"999","REF_FRAME":"TEME","CENTER_NAME":"EARTH","MEAN_ANOMALY":"326.3750","BSTAR":"-0.00010458000000","MEAN_MOTION_DOT":"-0.00001952","PERIOD":"95.438","TLE_LINE2":"2 52499  53.2187 302.0379 0002179  33.7381 326.3750 15.08838576 22297","TLE_LINE1":"1 52499U 22049BA  22270.45687681 -.00001952  00000-0 -10458-3 0  9994","RA_OF_ASC_NODE":"302.0379","ECCENTRICITY":"0.00021790","MEAN_MOTION_DDOT":"0.0000000000000","PERIAPSIS":"538.242","NORAD_CAT_ID":"52499","SITE":"AFETR","EPOCH":"2022-09-27T10:57:54.156384","GP_ID":"213639407","CLASSIFICATION_TYPE":"U","LAUNCH_DATE":"2022-05-06","FILE":"3585092","APOAPSIS":"541.257","SEMIMAJOR_AXIS":"6917.885","REV_AT_EPOCH":"2229","INCLINATION":"53.2187","RCS_SIZE":"LARGE","DECAY_DATE":null,"MEAN_ELEMENT_THEORY":"SGP4","OBJECT_TYPE":"PAYLOAD","TIME_SYSTEM":"UTC","ARG_OF_PERICENTER":"33.7381","OBJECT_NAME":"STARLINK-3894","EPHEMERIS_TYPE":"0","OBJECT_ID":"2022-049BA"},{"PERIOD":"95.438","MEAN_MOTION_DOT":"-0.00000434","BSTAR":"-0.00000918160000","MEAN_ANOMALY":"311.9116","CENTER_NAME":"EARTH","REF_FRAME":"TEME","ELEMENT_SET_NO":"999","MEAN_MOTION":"15.08836134","COUNTRY_CODE":"US","GP_ID":"213643825","EPOCH":"2022-09-27T18:19:03.557568","SITE":"AFETR","NORAD_CAT_ID":"52500","MEAN_MOTION_DDOT":"0.0000000000000","PERIAPSIS":"538.488","RA_OF_ASC_NODE":"290.6573","ECCENTRICITY":"0.00018350","TLE_LINE1":"1 52500U 22049BB  22270.76323562 -.00000434  00000-0 -91816-5 0  9999","TLE_LINE2":"2 52500  53.2154 290.6573 0001835  48.2033 311.9116 15.08836134 22637","RCS_SIZE":"LARGE","INCLINATION":"53.2154","REV_AT_EPOCH":"2263","APOAPSIS":"541.027","SEMIMAJOR_AXIS":"6917.892","FILE":"3585263","LAUNCH_DATE":"2022-05-06","CLASSIFICATION_TYPE":"U","EPHEMERIS_TYPE":"0","OBJECT_ID":"2022-049BB","OBJECT_NAME":"STARLINK-3866","ARG_OF_PERICENTER":"48.2033","TIME_SYSTEM":"UTC","OBJECT_TYPE":"PAYLOAD","MEAN_ELEMENT_THEORY":"SGP4","DECAY_DATE":null},{"LAUNCH_DATE":"2022-05-06","CLASSIFICATION_TYPE":"U","REV_AT_EPOCH":"2250","SEMIMAJOR_AXIS":"6917.876","APOAPSIS":"540.984","INCLINATION":"53.2193","RCS_SIZE":"LARGE","FILE":"3585263","DECAY_DATE":null,"MEAN_ELEMENT_THEORY":"SGP4","OBJECT_ID":"2022-049BC","EPHEMERIS_TYPE":"0","ARG_OF_PERICENTER":"41.8100","OBJECT_TYPE":"PAYLOAD","TIME_SYSTEM":"UTC","OBJECT_NAME":"STARLINK-3907","MEAN_MOTION":"15.08841515","COUNTRY_CODE":"US","PERIOD":"95.437","MEAN_MOTION_DOT":"0.00002114","BSTAR":"0.00015086000000","ELEMENT_SET_NO":"999","MEAN_ANOMALY":"318.3030","CENTER_NAME":"EARTH","REF_FRAME":"TEME","RA_OF_ASC_NODE":"300.5604","ECCENTRICITY":"0.00017970","PERIAPSIS":"538.498","MEAN_MOTION_DDOT":"0.0000000000000","TLE_LINE2":"2 52501  53.2193 300.5604 0001797  41.8100 318.3030 15.08841515 22509","TLE_LINE1":"1 52501U 22049BC  22270.78535093  .00002114  00000-0  15086-3 0  9994","EPOCH":"2022-09-27T18:50:54.320352","GP_ID":"213643822","SITE":"AFETR","NORAD_CAT_ID":"52501"},{"REF_FRAME":"TEME","CENTER_NAME":"EARTH","MEAN_ANOMALY":"306.0188","ELEMENT_SET_NO":"999","BSTAR":"0.00014679000000","MEAN_MOTION_DOT":"0.00002049","PERIOD":"95.437","COUNTRY_CODE":"US","MEAN_MOTION":"15.08845749","NORAD_CAT_ID":"52502","SITE":"AFETR","GP_ID":"213643838","EPOCH":"2022-09-27T18:09:49.622976","TLE_LINE1":"1 52502U 22049BD  22270.75682434  .00002049  00000-0  14679-3 0  9998","TLE_LINE2":"2 52502  53.2150 290.6838 0001799  54.0971 306.0188 15.08845749 22630","PERIAPSIS":"538.483","MEAN_MOTION_DDOT":"0.0000000000000","RA_OF_ASC_NODE":"290.6838","ECCENTRICITY":"0.00017990","FILE":"3585255","INCLINATION":"53.2150","RCS_SIZE":"LARGE","SEMIMAJOR_AXIS":"6917.863","APOAPSIS":"540.972","REV_AT_EPOCH":"2263","CLASSIFICATION_TYPE":"U","LAUNCH_DATE":"2022-05-06","OBJECT_NAME":"STARLINK-3912","TIME_SYSTEM":"UTC","OBJECT_TYPE":"PAYLOAD","ARG_OF_PERICENTER":"54.0971","EPHEMERIS_TYPE":"0","OBJECT_ID":"2022-049BD","MEAN_ELEMENT_THEORY":"SGP4","DECAY_DATE":null},{"ELEMENT_SET_NO":"999","MEAN_ANOMALY":"314.6181","CENTER_NAME":"EARTH","REF_FRAME":"TEME","PERIOD":"95.438","MEAN_MOTION_DOT":"0.00000705","BSTAR":"0.00006238300000","COUNTRY_CODE":"US","MEAN_MOTION":"15.08835666","NORAD_CAT_ID":"52503","GP_ID":"213644097","EPOCH":"2022-09-27T18:13:45.403392","SITE":"AFETR","TLE_LINE2":"2 52503  53.2157 290.6713 0002251  45.4995 314.6181 15.08835666 22639","TLE_LINE1":"1 52503U 22049BE  22270.75955328  .00000705  00000-0  62383-4 0  9997","ECCENTRICITY":"0.00022510","RA_OF_ASC_NODE":"290.6713","PERIAPSIS":"538.201","MEAN_MOTION_DDOT":"0.0000000000000","FILE":"3585255","REV_AT_EPOCH":"2263","APOAPSIS":"541.316","SEMIMAJOR_AXIS":"6917.894","RCS_SIZE":"LARGE","INCLINATION":"53.2157","CLASSIFICATION_TYPE":"U","LAUNCH_DATE":"2022-05-06","ARG_OF_PERICENTER":"45.4995","OBJECT_TYPE":"PAYLOAD","TIME_SYSTEM":"UTC","OBJECT_NAME":"STARLINK-3861","EPHEMERIS_TYPE":"0","OBJECT_ID":"2022-049BE","DECAY_DATE":null,"MEAN_ELEMENT_THEORY":"SGP4"},{"NORAD_CAT_ID":"52533","GP_ID":"213669783","EPOCH":"2022-09-27T16:22:31.584864","SITE":"AFWTR","TLE_LINE1":"1 52533U 22051A   22270.68231001  .00001134  00000-0  89293-4 0  9996","TLE_LINE2":"2 52533  53.2184  21.0368 0001292  69.5725 290.5406 15.08844339 21375","PERIAPSIS":"538.838","MEAN_MOTION_DDOT":"0.0000000000000","ECCENTRICITY":"0.00012920","RA_OF_ASC_NODE":"21.0368","MEAN_ANOMALY":"290.5406","CENTER_NAME":"EARTH","REF_FRAME":"TEME","ELEMENT_SET_NO":"999","PERIOD":"95.437","BSTAR":"0.00008929300000","MEAN_MOTION_DOT":"0.00001134","COUNTRY_CODE":"US","MEAN_MOTION":"15.08844339","OBJECT_NAME":"STARLINK-3951","ARG_OF_PERICENTER":"69.5725","TIME_SYSTEM":"UTC","OBJECT_TYPE":"PAYLOAD","EPHEMERIS_TYPE":"0","OBJECT_ID":"2022-051A","MEAN_ELEMENT_THEORY":"SGP4","DECAY_DATE":null,"FILE":"3585280","INCLINATION":"53.2184","RCS_SIZE":"LARGE","REV_AT_EPOCH":"2137","APOAPSIS":"540.626","SEMIMAJOR_AXIS":"6917.867","CLASSIFICATION_TYPE":"U","LAUNCH_DATE":"2022-05-13"},{"CLASSIFICATION_TYPE":"U","LAUNCH_DATE":"2022-05-13","FILE":"3585053","SEMIMAJOR_AXIS":"6917.895","APOAPSIS":"541.015","REV_AT_EPOCH":"2141","RCS_SIZE":"LARGE","INCLINATION":"53.2166","DECAY_DATE":null,"MEAN_ELEMENT_THEORY":"SGP4","OBJECT_TYPE":"PAYLOAD","TIME_SYSTEM":"UTC","ARG_OF_PERICENTER":"49.0853","OBJECT_NAME":"STARLINK-3952","EPHEMERIS_TYPE":"0","OBJECT_ID":"2022-051B","COUNTRY_CODE":"US","MEAN_MOTION":"15.08835349","ELEMENT_SET_NO":"999","REF_FRAME":"TEME","MEAN_ANOMALY":"311.0296","CENTER_NAME":"EARTH","BSTAR":"0.00002580800000","MEAN_MOTION_DOT":"0.00000123","PERIOD":"95.438","TLE_LINE2":"2 52534  53.2166  21.9042 0001815  49.0853 311.0296 15.08835349 21412","TLE_LINE1":"1 52534U 22051B   22270.49000044  .00000123  00000-0  25808-4 0  9996","RA_OF_ASC_NODE":"21.9042","ECCENTRICITY":"0.00018150","PERIAPSIS":"538.504","MEAN_MOTION_DDOT":"0.0000000000000","NORAD_CAT_ID":"52534","SITE":"AFWTR","GP_ID":"213613674","EPOCH":"2022-09-27T11:45:36.038016"},{"EPHEMERIS_TYPE":"0","OBJECT_ID":"2022-051C","ARG_OF_PERICENTER":"52.9197","TIME_SYSTEM":"UTC","OBJECT_TYPE":"PAYLOAD","OBJECT_NAME":"STARLINK-3958","DECAY_DATE":null,"MEAN_ELEMENT_THEORY":"SGP4","REV_AT_EPOCH":"2141","APOAPSIS":"540.944","SEMIMAJOR_AXIS":"6917.884","RCS_SIZE":"LARGE","INCLINATION":"53.2185","FILE":"3585053","LAUNCH_DATE":"2022-05-13","CLASSIFICATION_TYPE":"U","GP_ID":"213613668","EPOCH":"2022-09-27T11:40:17.768928","SITE":"AFWTR","NORAD_CAT_ID":"52535","RA_OF_ASC_NODE":"21.9144","ECCENTRICITY":"0.00017270","PERIAPSIS":"538.555","MEAN_MOTION_DDOT":"0.0000000000000","TLE_LINE2":"2 52535  53.2185  21.9144 0001727  52.9197 307.1953 15.08838710 21414","TLE_LINE1":"1 52535U 22051C   22270.48631677  .00001412  00000-0  10679-3 0  9999","PERIOD":"95.438","BSTAR":"0.00010679000000","MEAN_MOTION_DOT":"0.00001412","ELEMENT_SET_NO":"999","CENTER_NAME":"EARTH","MEAN_ANOMALY":"307.1953","REF_FRAME":"TEME","MEAN_MOTION":"15.08838710","COUNTRY_CODE":"US"}];
